{
  "type": "FeatureCollection",
  "features": [
    {
      "type": "Feature",
      "properties": {
        "norad_id": 31878,
        "name": "FENGYUN 1C DEB",
        "group": "fengyun-1c-debris",
        "lat": -0.6938992666492763,
        "lon": 84.99968614483718,
        "alt_km": 596.2497215280991,
        "timestamp": "2025-12-08T08:59:01.050200+00:00",
        "meta_object_name": "FENGYUN 1C DEB",
        "meta_object_id": "1999-025CKD",
        "meta_epoch": "2025-12-03T00:27:41.548032",
        "meta_mean_motion": 14.85464766,
        "meta_eccentricity": 0.00842743,
        "meta_inclination": 99.4399,
        "meta_ra_of_asc_node": 258.7733,
        "meta_arg_of_pericenter": 269.6043,
        "meta_mean_anomaly": 89.551,
        "meta_ephemeris_type": 0,
        "meta_classification_type": "U",
        "meta_norad_cat_id": 31878,
        "meta_element_set_no": 999,
        "meta_rev_at_epoch": 97949,
        "meta_bstar": 0.0019397439,
        "meta_mean_motion_dot": 0.000178,
        "meta_mean_motion_ddot": 0,
        "tle_line1": "1 31878U 99025CKD 25337.01923088  .00017800  00000+0  19397-2 0  9999",
        "tle_line2": "2 31878  99.4399 258.7733 0084274 269.6043  89.5510 14.85464766979499"
      },
      "geometry": {
        "type": "Point",
        "coordinates": [
          84.99968614483718,
          -0.6938992666492763
        ]
      }
    },
    {
      "type": "Feature",
      "properties": {
        "norad_id": 31879,
        "name": "FENGYUN 1C DEB",
        "group": "fengyun-1c-debris",
        "lat": -76.45702675095225,
        "lon": -94.47164927372773,
        "alt_km": 850.3052891321777,
        "timestamp": "2025-12-08T08:59:01.050210+00:00",
        "meta_object_name": "FENGYUN 1C DEB",
        "meta_object_id": "1999-025CKE",
        "meta_epoch": "2025-12-06T12:25:17.423328",
        "meta_mean_motion": 14.42878712,
        "meta_eccentricity": 0.02100051,
        "meta_inclination": 99.708,
        "meta_ra_of_asc_node": 218.1225,
        "meta_arg_of_pericenter": 54.7428,
        "meta_mean_anomaly": 307.3211,
        "meta_ephemeris_type": 0,
        "meta_classification_type": "U",
        "meta_norad_cat_id": 31879,
        "meta_element_set_no": 999,
        "meta_rev_at_epoch": 63120,
        "meta_bstar": 0.00055530099,
        "meta_mean_motion_dot": 2.356e-05,
        "meta_mean_motion_ddot": 0,
        "tle_line1": "1 31879U 99025CKE 25340.51756277  .00002356  00000+0  55530-3 0  9993",
        "tle_line2": "2 31879  99.7080 218.1225 0210005  54.7428 307.3211 14.42878712631205"
      },
      "geometry": {
        "type": "Point",
        "coordinates": [
          -94.47164927372773,
          -76.45702675095225
        ]
      }
    },
    {
      "type": "Feature",
      "properties": {
        "norad_id": 31880,
        "name": "FENGYUN 1C DEB",
        "group": "fengyun-1c-debris",
        "lat": -45.310252809937474,
        "lon": 155.1555639357193,
        "alt_km": 1018.7548118269988,
        "timestamp": "2025-12-08T08:59:01.050221+00:00",
        "meta_object_name": "FENGYUN 1C DEB",
        "meta_object_id": "1999-025CKF",
        "meta_epoch": "2025-12-07T17:39:23.204736",
        "meta_mean_motion": 13.89389039,
        "meta_eccentricity": 0.01282018,
        "meta_inclination": 100.0287,
        "meta_ra_of_asc_node": 144.1639,
        "meta_arg_of_pericenter": 164.9392,
        "meta_mean_anomaly": 195.5637,
        "meta_ephemeris_type": 0,
        "meta_classification_type": "U",
        "meta_norad_cat_id": 31880,
        "meta_element_set_no": 999,
        "meta_rev_at_epoch": 62910,
        "meta_bstar": 0.00081356926,
        "meta_mean_motion_dot": 1.01e-05,
        "meta_mean_motion_ddot": 0,
        "tle_line1": "1 31880U 99025CKF 25341.73568524  .00001010  00000+0  81357-3 0  9998",
        "tle_line2": "2 31880 100.0287 144.1639 0128201 164.9392 195.5637 13.89389039629103"
      },
      "geometry": {
        "type": "Point",
        "coordinates": [
          155.1555639357193,
          -45.310252809937474
        ]
      }
    },
    {
      "type": "Feature",
      "properties": {
        "norad_id": 31882,
        "name": "FENGYUN 1C DEB",
        "group": "fengyun-1c-debris",
        "lat": -60.00941303308236,
        "lon": 69.13798593451554,
        "alt_km": 830.7857275353617,
        "timestamp": "2025-12-08T08:59:01.050231+00:00",
        "meta_object_name": "FENGYUN 1C DEB",
        "meta_object_id": "1999-025CKH",
        "meta_epoch": "2025-12-04T12:04:11.131104",
        "meta_mean_motion": 14.12940251,
        "meta_eccentricity": 0.0035445,
        "meta_inclination": 98.9162,
        "meta_ra_of_asc_node": 261.0675,
        "meta_arg_of_pericenter": 248.9848,
        "meta_mean_anomaly": 110.7531,
        "meta_ephemeris_type": 0,
        "meta_classification_type": "U",
        "meta_norad_cat_id": 31882,
        "meta_element_set_no": 999,
        "meta_rev_at_epoch": 58520,
        "meta_bstar": 0.0011941,
        "meta_mean_motion_dot": 2.193e-05,
        "meta_mean_motion_ddot": 0,
        "tle_line1": "1 31882U 99025CKH 25338.50290661  .00002193  00000+0  11941-2 0  9999",
        "tle_line2": "2 31882  98.9162 261.0675 0035445 248.9848 110.7531 14.12940251585207"
      },
      "geometry": {
        "type": "Point",
        "coordinates": [
          69.13798593451554,
          -60.00941303308236
        ]
      }
    },
    {
      "type": "Feature",
      "properties": {
        "norad_id": 31883,
        "name": "FENGYUN 1C DEB",
        "group": "fengyun-1c-debris",
        "lat": 15.06751073482821,
        "lon": 81.00908963224073,
        "alt_km": 656.1539917568698,
        "timestamp": "2025-12-08T08:59:01.050242+00:00",
        "meta_object_name": "FENGYUN 1C DEB",
        "meta_object_id": "1999-025CKJ",
        "meta_epoch": "2025-12-07T17:31:23.516256",
        "meta_mean_motion": 14.67676133,
        "meta_eccentricity": 0.012519,
        "meta_inclination": 99.0279,
        "meta_ra_of_asc_node": 257.8463,
        "meta_arg_of_pericenter": 84.4564,
        "meta_mean_anomaly": 277.0901,
        "meta_ephemeris_type": 0,
        "meta_classification_type": "U",
        "meta_norad_cat_id": 31883,
        "meta_element_set_no": 999,
        "meta_rev_at_epoch": 97905,
        "meta_bstar": 0.0011592312,
        "meta_mean_motion_dot": 7.366e-05,
        "meta_mean_motion_ddot": 0,
        "tle_line1": "1 31883U 99025CKJ 25341.73013329  .00007366  00000+0  11592-2 0  9992",
        "tle_line2": "2 31883  99.0279 257.8463 0125190  84.4564 277.0901 14.67676133979055"
      },
      "geometry": {
        "type": "Point",
        "coordinates": [
          81.00908963224073,
          15.06751073482821
        ]
      }
    },
    {
      "type": "Feature",
      "properties": {
        "norad_id": 31887,
        "name": "FENGYUN 1C DEB",
        "group": "fengyun-1c-debris",
        "lat": 76.17896221481432,
        "lon": -103.56280030742951,
        "alt_km": 690.7493008821075,
        "timestamp": "2025-12-08T08:59:01.050252+00:00",
        "meta_object_name": "FENGYUN 1C DEB",
        "meta_object_id": "1999-025CKN",
        "meta_epoch": "2025-12-06T21:56:03.307488",
        "meta_mean_motion": 14.57720437,
        "meta_eccentricity": 0.00242989,
        "meta_inclination": 99.5345,
        "meta_ra_of_asc_node": 31.673,
        "meta_arg_of_pericenter": 22.5035,
        "meta_mean_anomaly": 337.722,
        "meta_ephemeris_type": 0,
        "meta_classification_type": "U",
        "meta_norad_cat_id": 31887,
        "meta_element_set_no": 999,
        "meta_rev_at_epoch": 96523,
        "meta_bstar": 0.0016261686,
        "meta_mean_motion_dot": 7.404e-05,
        "meta_mean_motion_ddot": 0,
        "tle_line1": "1 31887U 99025CKN 25340.91392717  .00007404  00000+0  16262-2 0  9998",
        "tle_line2": "2 31887  99.5345  31.6730 0024298  22.5035 337.7220 14.57720437965235"
      },
      "geometry": {
        "type": "Point",
        "coordinates": [
          -103.56280030742951,
          76.17896221481432
        ]
      }
    },
    {
      "type": "Feature",
      "properties": {
        "norad_id": 31888,
        "name": "FENGYUN 1C DEB",
        "group": "fengyun-1c-debris",
        "lat": 32.96767797252598,
        "lon": 94.52591839345646,
        "alt_km": 775.634490063062,
        "timestamp": "2025-12-08T08:59:01.050262+00:00",
        "meta_object_name": "FENGYUN 1C DEB",
        "meta_object_id": "1999-025CKP",
        "meta_epoch": "2025-12-07T00:28:50.439072",
        "meta_mean_motion": 14.33835199,
        "meta_eccentricity": 0.00174048,
        "meta_inclination": 99.1514,
        "meta_ra_of_asc_node": 267.0927,
        "meta_arg_of_pericenter": 235.1258,
        "meta_mean_anomaly": 124.8289,
        "meta_ephemeris_type": 0,
        "meta_classification_type": "U",
        "meta_norad_cat_id": 31888,
        "meta_element_set_no": 999,
        "meta_rev_at_epoch": 95555,
        "meta_bstar": 0.0031843238,
        "meta_mean_motion_dot": 8.838e-05,
        "meta_mean_motion_ddot": 0,
        "tle_line1": "1 31888U 99025CKP 25341.02002823  .00008838  00000+0  31843-2 0  9992",
        "tle_line2": "2 31888  99.1514 267.0927 0017404 235.1258 124.8289 14.33835199955553"
      },
      "geometry": {
        "type": "Point",
        "coordinates": [
          94.52591839345646,
          32.96767797252598
        ]
      }
    }
  ]
}